{"type": "FeatureCollection", "features": [ {"type": "Feature", "properties": {"norad_id": 51444, "name": "CSG-2", "group": "resource", "lat": 4.974601386832333, "lon": -15.187500504515773, "alt_km": 624.8497537066087, "timestamp": "2025-12-08T17:43:04.551889+00:00", "meta": {"OBJECT_NAME": "CSG-2", "OBJECT_ID": "2022-008A", "EPOCH": "2025-12-08T05:35:23.624448", "MEAN_MOTION": 14.82156872, "ECCENTRICITY": 0.00014923, "INCLINATION": 97.8812, "RA_OF_ASC_NODE": 163.6241, "ARG_OF_PERICENTER": 87.8115, "MEAN_ANOMALY": 272.3269, "EPHEMERIS_TYPE": 0, "CLASSIFICATION_TYPE": "U", "NORAD_CAT_ID": 51444, "ELEMENT_SET_NO": 999, "REV_AT_EPOCH": 20830, "BSTAR": 0.00012062508, "MEAN_MOTION_DOT": 9.08e-06, "MEAN_MOTION_DDOT": 0}, "tle": {"line1": "1 51444U 22008A   25342.23291232  .00000908  00000+0  12063-3 0  9991", "line2": "2 51444  97.8812 163.6241 0001492  87.8115 272.3269 14.82156872208302"}}, "geometry": {"type": "Point", "coordinates": [-15.187500504515773, 4.974601386832333]}}, {"type": "Feature", "properties": {"norad_id": 52912, "name": "GAOFEN-12 03", "group": "resource", "lat": 51.03716420795866, "lon": 60.00105371872311, "alt_km": 625.1192838090383, "timestamp": "2025-12-08T17:43:04.551902+00:00", "meta": {"OBJECT_NAME": "GAOFEN-12 03", "OBJECT_ID": "2022-069A", "EPOCH": "2025-12-08T05:46:45.229728", "MEAN_MOTION": 14.7959337, "ECCENTRICITY": 0.0002256, "INCLINATION": 97.8492, "RA_OF_ASC_NODE": 229.6936, "ARG_OF_PERICENTER": 69.8169, "MEAN_ANOMALY": 290.3285, "EPHEMERIS_TYPE": 0, "CLASSIFICATION_TYPE": "U", "NORAD_CAT_ID": 52912, "ELEMENT_SET_NO": 999, "REV_AT_EPOCH": 18637, "BSTAR": 0.00029839715, "MEAN_MOTION_DOT": 2.185e-05, "MEAN_MOTION_DDOT": 0}, "tle": {"line1": "1 52912U 22069A   25342.24080127  .00002185  00000+0  29840-3 0  9999", "line2": "2 52912  97.8492 229.6936 0002256  69.8169 290.3285 14.79593370186373"}}, "geometry": {"type": "Point", "coordinates": [60.00105371872311, 51.03716420795866]}}, {"type": "Feature", "properties": {"norad_id": 54754, "name": "SWOT", "group": "resource", "lat": 14.843242262693092, "lon": 109.05210261773023, "alt_km": 893.6354506426096, "timestamp": "2025-12-08T17:43:04.551914+00:00", "meta": {"OBJECT_NAME": "SWOT", "OBJECT_ID": "2022-173A", "EPOCH": "2025-12-08T06:38:40.640064", "MEAN_MOTION": 14.00173729, "ECCENTRICITY": 3.438e-05, "INCLINATION": 77.6102, "RA_OF_ASC_NODE": 293.0144, "ARG_OF_PERICENTER": 125.4008, "MEAN_ANOMALY": 234.7176, "EPHEMERIS_TYPE": 0, "CLASSIFICATION_TYPE": "U", "NORAD_CAT_ID": 54754, "ELEMENT_SET_NO": 999, "REV_AT_EPOCH": 15243, "BSTAR": 9.7073018e-05, "MEAN_MOTION_DOT": 1.41e-06, "MEAN_MOTION_DDOT": 0}, "tle": {"line1": "1 54754U 22173A   25342.27685926  .00000141  00000+0  97073-4 0  9996", "line2": "2 54754  77.6102 293.0144 0000343 125.4008 234.7176 14.00173729152432"}}, "geometry": {"type": "Point", "coordinates": [109.05210261773023, 14.843242262693092]}}, {"type": "Feature", "properties": {"norad_id": 57654, "name": "GAOFEN-12 04", "group": "resource", "lat": -62.50618763399881, "lon": -85.94508102789028, "alt_km": 638.2085303684262, "timestamp": "2025-12-08T17:43:04.551924+00:00", "meta": {"OBJECT_NAME": "GAOFEN-12 04", "OBJECT_ID": "2023-123A", "EPOCH": "2025-12-08T06:38:39.039936", "MEAN_MOTION": 14.79680441, "ECCENTRICITY": 0.00013878, "INCLINATION": 97.912, "RA_OF_ASC_NODE": 258.1018, "ARG_OF_PERICENTER": 73.3, "MEAN_ANOMALY": 286.8363, "EPHEMERIS_TYPE": 0, "CLASSIFICATION_TYPE": "U", "NORAD_CAT_ID": 57654, "ELEMENT_SET_NO": 999, "REV_AT_EPOCH": 12439, "BSTAR": 0.00034440888, "MEAN_MOTION_DOT": 2.534e-05, "MEAN_MOTION_DDOT": 0}, "tle": {"line1": "1 57654U 23123A   25342.27684074  .00002534  00000+0  34441-3 0  9994", "line2": "2 57654  97.9120 258.1018 0001387  73.3000 286.8363 14.79680441124393"}}, "geometry": {"type": "Point", "coordinates": [-85.94508102789028, -62.50618763399881]}}, {"type": "Feature", "properties": {"norad_id": 59065, "name": "PARS 1", "group": "resource", "lat": 6.912807335338818, "lon": 134.497384163877, "alt_km": 445.6690274478824, "timestamp": "2025-12-08T17:43:04.551934+00:00", "meta": {"OBJECT_NAME": "PARS 1", "OBJECT_ID": "2024-039Q", "EPOCH": "2025-12-08T06:03:39.009312", "MEAN_MOTION": 15.40823542, "ECCENTRICITY": 0.00126874, "INCLINATION": 97.4636, "RA_OF_ASC_NODE": 313.0907, "ARG_OF_PERICENTER": 85.4921, "MEAN_ANOMALY": 274.7775, "EPHEMERIS_TYPE": 0, "CLASSIFICATION_TYPE": "U", "NORAD_CAT_ID": 59065, "ELEMENT_SET_NO": 999, "REV_AT_EPOCH": 9919, "BSTAR": 0.00034834547, "MEAN_MOTION_DOT": 0.00014241, "MEAN_MOTION_DDOT": 0}, "tle": {"line1": "1 59065U 24039Q   25342.25253483  .00014241  00000+0  34835-3 0  9998", "line2": "2 59065  97.4636 313.0907 0012687  85.4921 274.7775 15.40823542 99199"}}, "geometry": {"type": "Point", "coordinates": [134.497384163877, 6.912807335338818]}}, {"type": "Feature", "properties": {"norad_id": 59371, "name": "RESURS-P 4", "group": "resource", "lat": 79.29041468716582, "lon": -113.19015284684811, "alt_km": 461.3091854766517, "timestamp": "2025-12-08T17:43:04.551946+00:00", "meta": {"OBJECT_NAME": "RESURS-P 4", "OBJECT_ID": "2024-061A", "EPOCH": "2025-12-08T06:23:17.126016", "MEAN_MOTION": 15.32031518, "ECCENTRICITY": 0.00018412, "INCLINATION": 97.2543, "RA_OF_ASC_NODE": 288.6878, "ARG_OF_PERICENTER": 53.2413, "MEAN_ANOMALY": 306.8998, "EPHEMERIS_TYPE": 0, "CLASSIFICATION_TYPE": "U", "NORAD_CAT_ID": 59371, "ELEMENT_SET_NO": 999, "REV_AT_EPOCH": 9452, "BSTAR": 0.0001884149, "MEAN_MOTION_DOT": 5.751e-05, "MEAN_MOTION_DDOT": 0}, "tle": {"line1": "1 59371U 24061A   25342.26617044  .00005751  00000+0  18841-3 0  9996", "line2": "2 59371  97.2543 288.6878 0001841  53.2413 306.8998 15.32031518 94528"}}, "geometry": {"type": "Point", "coordinates": [-113.19015284684811, 79.29041468716582]}}, {"type": "Feature", "properties": {"norad_id": 59625, "name": "LEGION 1", "group": "resource", "lat": 8.220154128376588, "lon": -121.4953620852695, "alt_km": 521.4720214861154, "timestamp": "2025-12-08T17:43:04.551956+00:00", "meta": {"OBJECT_NAME": "LEGION 1", "OBJECT_ID": "2024-081A", "EPOCH": "2025-12-08T05:52:39.665856", "MEAN_MOTION": 15.16411608, "ECCENTRICITY": 0.0004316, "INCLINATION": 97.5214, "RA_OF_ASC_NODE": 56.9219, "ARG_OF_PERICENTER": 336.4628, "MEAN_ANOMALY": 23.6407, "EPHEMERIS_TYPE": 0, "CLASSIFICATION_TYPE": "U", "NORAD_CAT_ID": 59625, "ELEMENT_SET_NO": 999, "REV_AT_EPOCH": 8859, "BSTAR": 0.00036023025, "MEAN_MOTION_DOT": 6.936e-05, "MEAN_MOTION_DDOT": 0}, "tle": {"line1": "1 59625U 24081A   25342.24490354  .00006936  00000+0  36023-3 0  9999", "line2": "2 59625  97.5214  56.9219 0004316 336.4628  23.6407 15.16411608 88590"}}, "geometry": {"type": "Point", "coordinates": [-121.4953620852695, 8.220154128376588]}}, {"type": "Feature", "properties": {"norad_id": 59626, "name": "LEGION 2", "group": "resource", "lat": -8.809732917199874, "lon": 58.67133576414419, "alt_km": 517.6816733750329, "timestamp": "2025-12-08T17:43:04.551967+00:00", "meta": {"OBJECT_NAME": "LEGION 2", "OBJECT_ID": "2024-081B", "EPOCH": "2025-12-08T06:40:16.654656", "MEAN_MOTION": 15.16425279, "ECCENTRICITY": 0.00058923, "INCLINATION": 97.5219, "RA_OF_ASC_NODE": 57.0416, "ARG_OF_PERICENTER": 312.6786, "MEAN_ANOMALY": 47.395, "EPHEMERIS_TYPE": 0, "CLASSIFICATION_TYPE": "U", "NORAD_CAT_ID": 59626, "ELEMENT_SET_NO": 999, "REV_AT_EPOCH": 8860, "BSTAR": 0.00036488228, "MEAN_MOTION_DOT": 7.03e-05, "MEAN_MOTION_DDOT": 0}, "tle": {"line1": "1 59626U 24081B   25342.27797054  .00007030  00000+0  36488-3 0  9991", "line2": "2 59626  97.5219  57.0416 0005892 312.6786  47.3950 15.16425279 88605"}}, "geometry": {"type": "Point", "coordinates": [58.67133576414419, -8.809732917199874]}}, {"type": "Feature", "properties": {"norad_id": 60182, "name": "ALOS-4 (DAICHI-4)", "group": "resource", "lat": -0.42519799697895716, "lon": -102.41673164840714, "alt_km": 633.9244312330065, "timestamp": "2025-12-08T17:43:04.551977+00:00", "meta": {"OBJECT_NAME": "ALOS-4 (DAICHI-4)", "OBJECT_ID": "2024-123A", "EPOCH": "2025-12-08T05:32:36.093984", "MEAN_MOTION": 14.79474801, "ECCENTRICITY": 0.00013733, "INCLINATION": 97.9229, "RA_OF_ASC_NODE": 77.1425, "ARG_OF_PERICENTER": 99.1811, "MEAN_ANOMALY": 260.9556, "EPHEMERIS_TYPE": 0, "CLASSIFICATION_TYPE": "U", "NORAD_CAT_ID": 60182, "ELEMENT_SET_NO": 999, "REV_AT_EPOCH": 7764, "BSTAR": 0.00050470123, "MEAN_MOTION_DOT": 3.72e-05, "MEAN_MOTION_DDOT": 0}, "tle": {"line1": "1 60182U 24123A   25342.23097331  .00003720  00000+0  50470-3 0  9993", "line2": "2 60182  97.9229  77.1425 0001373  99.1811 260.9556 14.79474801 77648"}}, "geometry": {"type": "Point", "coordinates": [-102.41673164840714, -0.42519799697895716]}}, {"type": "Feature", "properties": {"norad_id": 60452, "name": "LEGION 3", "group": "resource", "lat": 9.399643794443344, "lon": -18.883577859012814, "alt_km": 527.055633718468, "timestamp": "2025-12-08T17:43:04.551991+00:00", "meta": {"OBJECT_NAME": "LEGION 3", "OBJECT_ID": "2024-146A", "EPOCH": "2025-12-08T06:35:11.789664", "MEAN_MOTION": 15.15689415, "ECCENTRICITY": 0.00143723, "INCLINATION": 45.0028, "RA_OF_ASC_NODE": 334.0692, "ARG_OF_PERICENTER": 174.233, "MEAN_ANOMALY": 185.8716, "EPHEMERIS_TYPE": 0, "CLASSIFICATION_TYPE": "U", "NORAD_CAT_ID": 60452, "ELEMENT_SET_NO": 999, "REV_AT_EPOCH": 7305, "BSTAR": 0.00037611581, "MEAN_MOTION_DOT": 7.041e-05, "MEAN_MOTION_DDOT": 0}, "tle": {"line1": "1 60452U 24146A   25342.27444201  .00007041  00000+0  37612-3 0  9997", "line2": "2 60452  45.0028 334.0692 0014372 174.2330 185.8716 15.15689415 73058"}}, "geometry": {"type": "Point", "coordinates": [-18.883577859012814, 9.399643794443344]}}]}